[{"OBJECT_NAME":"CUTE-1 (CO-55)","OBJECT_ID":"2003-031E","EPOCH":"2026-03-04T23:56:20.901696","MEAN_MOTION":14.24261503,"ECCENTRICITY":0.00105298,"INCLINATION":98.6779,"RA_OF_ASC_NODE":73.8545,"ARG_OF_PERICENTER":124.7056,"MEAN_ANOMALY":235.5116,"EPHEMERIS_TYPE":0,"CLASSIFICATION_TYPE":"U","NORAD_CAT_ID":27844,"ELEMENT_SET_NO":999,"REV_AT_EPOCH":17684,"BSTAR":0.00020884486,"MEAN_MOTION_DOT":4.38e-6,"MEAN_MOTION_DDOT":0},{"OBJECT_NAME":"CUBESAT XI-IV (CO-57)","OBJECT_ID":"2003-031J","EPOCH":"2026-03-03T22:47:58.788672","MEAN_MOTION":14.23556668,"ECCENTRICITY":0.0010137,"INCLINATION":98.6808,"RA_OF_ASC_NODE":72.6171,"ARG_OF_PERICENTER":144.034,"MEAN_ANOMALY":216.1522,"EPHEMERIS_TYPE":0,"CLASSIFICATION_TYPE":"U","NORAD_CAT_ID":27848,"ELEMENT_SET_NO":999,"REV_AT_EPOCH":17640,"BSTAR":0.00019861,"MEAN_MOTION_DOT":4.09e-6,"MEAN_MOTION_DDOT":0},{"OBJECT_NAME":"CUBESAT XI-V","OBJECT_ID":"2005-043F","EPOCH":"2026-03-04T21:22:28.227936","MEAN_MOTION":14.72293633,"ECCENTRICITY":0.00144639,"INCLINATION":98.282,"RA_OF_ASC_NODE":217.4242,"ARG_OF_PERICENTER":172.5455,"MEAN_ANOMALY":187.5969,"EPHEMERIS_TYPE":0,"CLASSIFICATION_TYPE":"U","NORAD_CAT_ID":28895,"ELEMENT_SET_NO":999,"REV_AT_EPOCH":8640,"BSTAR":0.00043726295,"MEAN_MOTION_DOT":2.715e-5,"MEAN_MOTION_DDOT":0},{"OBJECT_NAME":"CUTE-1.7+APD II (CO-65)","OBJECT_ID":"2008-021C","EPOCH":"2026-03-05T04:51:31.025952","MEAN_MOTION":15.08295688,"ECCENTRICITY":0.00102134,"INCLINATION":97.8205,"RA_OF_ASC_NODE":43.5935,"ARG_OF_PERICENTER":33.5486,"MEAN_ANOMALY":326.6386,"EPHEMERIS_TYPE":0,"CLASSIFICATION_TYPE":"U","NORAD_CAT_ID":32785,"ELEMENT_SET_NO":999,"REV_AT_EPOCH":96951,"BSTAR":0.00057356484,"MEAN_MOTION_DOT":8.844e-5,"MEAN_MOTION_DDOT":0},{"OBJECT_NAME":"CANX-2","OBJECT_ID":"2008-021H","EPOCH":"2026-03-04T23:39:36.861984","MEAN_MOTION":15.04735256,"ECCENTRICITY":0.00120626,"INCLINATION":97.8562,"RA_OF_ASC_NODE":41.8586,"ARG_OF_PERICENTER":44.8164,"MEAN_ANOMALY":315.4034,"EPHEMERIS_TYPE":0,"CLASSIFICATION_TYPE":"U","NORAD_CAT_ID":32790,"ELEMENT_SET_NO":999,"REV_AT_EPOCH":96913,"BSTAR":0.00045751301,"MEAN_MOTION_DOT":6.394e-5,"MEAN_MOTION_DDOT":0},{"OBJECT_NAME":"SEEDS II (CO-66)","OBJECT_ID":"2008-021J","EPOCH":"2026-03-04T13:18:31.156128","MEAN_MOTION":15.28814513,"ECCENTRICITY":0.0002344,"INCLINATION":97.7508,"RA_OF_ASC_NODE":56.7719,"ARG_OF_PERICENTER":16.0958,"MEAN_ANOMALY":344.0355,"EPHEMERIS_TYPE":0,"CLASSIFICATION_TYPE":"U","NORAD_CAT_ID":32791,"ELEMENT_SET_NO":999,"REV_AT_EPOCH":97128,"BSTAR":0.00099192,"MEAN_MOTION_DOT":0.00027773,"MEAN_MOTION_DDOT":0},{"OBJECT_NAME":"SWISSCUBE","OBJECT_ID":"2009-051B","EPOCH":"2026-03-05T05:38:20.871456","MEAN_MOTION":14.62245193,"ECCENTRICITY":0.00067679,"INCLINATION":98.4103,"RA_OF_ASC_NODE":330.2989,"ARG_OF_PERICENTER":165.9945,"MEAN_ANOMALY":194.1445,"EPHEMERIS_TYPE":0,"CLASSIFICATION_TYPE":"U","NORAD_CAT_ID":35932,"ELEMENT_SET_NO":999,"REV_AT_EPOCH":87396,"BSTAR":0.00035985013,"MEAN_MOTION_DOT":1.765e-5,"MEAN_MOTION_DDOT":0},{"OBJECT_NAME":"BEESAT-1","OBJECT_ID":"2009-051C","EPOCH":"2026-03-05T04:35:44.959776","MEAN_MOTION":14.61520944,"ECCENTRICITY":0.00049981,"INCLINATION":98.4034,"RA_OF_ASC_NODE":330.1037,"ARG_OF_PERICENTER":176.8961,"MEAN_ANOMALY":183.2271,"EPHEMERIS_TYPE":0,"CLASSIFICATION_TYPE":"U","NORAD_CAT_ID":35933,"ELEMENT_SET_NO":999,"REV_AT_EPOCH":87399,"BSTAR":0.00030945209,"MEAN_MOTION_DOT":1.486e-5,"MEAN_MOTION_DDOT":0},{"OBJECT_NAME":"ITUPSAT1","OBJECT_ID":"2009-051E","EPOCH":"2026-03-05T05:29:34.719648","MEAN_MOTION":14.60257017,"ECCENTRICITY":0.00069575,"INCLINATION":98.412,"RA_OF_ASC_NODE":329.4408,"ARG_OF_PERICENTER":192.5039,"MEAN_ANOMALY":167.599,"EPHEMERIS_TYPE":0,"CLASSIFICATION_TYPE":"U","NORAD_CAT_ID":35935,"ELEMENT_SET_NO":999,"REV_AT_EPOCH":87356,"BSTAR":0.00029276943,"MEAN_MOTION_DOT":1.364e-5,"MEAN_MOTION_DDOT":0},{"OBJECT_NAME":"TISAT 1","OBJECT_ID":"2010-035E","EPOCH":"2026-03-05T00:58:14.371104","MEAN_MOTION":15.27357031,"ECCENTRICITY":5.42e-5,"INCLINATION":98.065,"RA_OF_ASC_NODE":1.7537,"ARG_OF_PERICENTER":169.476,"MEAN_ANOMALY":190.6489,"EPHEMERIS_TYPE":0,"CLASSIFICATION_TYPE":"U","NORAD_CAT_ID":36799,"ELEMENT_SET_NO":999,"REV_AT_EPOCH":85178,"BSTAR":0.0010243309,"MEAN_MOTION_DOT":0.00027432,"MEAN_MOTION_DDOT":0},{"OBJECT_NAME":"AEROCUBE 4.5A","OBJECT_ID":"2012-048K","EPOCH":"2026-03-05T07:18:50.153760","MEAN_MOTION":15.6108086,"ECCENTRICITY":0.00415013,"INCLINATION":64.6385,"RA_OF_ASC_NODE":35.3155,"ARG_OF_PERICENTER":213.3687,"MEAN_ANOMALY":146.4843,"EPHEMERIS_TYPE":0,"CLASSIFICATION_TYPE":"U","NORAD_CAT_ID":38767,"ELEMENT_SET_NO":999,"REV_AT_EPOCH":35630,"BSTAR":0.0011276914,"MEAN_MOTION_DOT":0.00100707,"MEAN_MOTION_DDOT":0},{"OBJECT_NAME":"STRAND-1","OBJECT_ID":"2013-009E","EPOCH":"2026-03-04T11:33:40.641696","MEAN_MOTION":14.37089808,"ECCENTRICITY":0.00086929,"INCLINATION":98.3882,"RA_OF_ASC_NODE":246.3029,"ARG_OF_PERICENTER":176.9706,"MEAN_ANOMALY":183.1535,"EPHEMERIS_TYPE":0,"CLASSIFICATION_TYPE":"U","NORAD_CAT_ID":39090,"ELEMENT_SET_NO":999,"REV_AT_EPOCH":68202,"BSTAR":0.00020323985,"MEAN_MOTION_DOT":5.61e-6,"MEAN_MOTION_DDOT":0},{"OBJECT_NAME":"BRITE-AUSTRIA","OBJECT_ID":"2013-009F","EPOCH":"2026-03-05T01:50:57.310944","MEAN_MOTION":14.36492856,"ECCENTRICITY":0.00100796,"INCLINATION":98.3951,"RA_OF_ASC_NODE":246.1,"ARG_OF_PERICENTER":184.8031,"MEAN_ANOMALY":175.3061,"EPHEMERIS_TYPE":0,"CLASSIFICATION_TYPE":"U","NORAD_CAT_ID":39091,"ELEMENT_SET_NO":999,"REV_AT_EPOCH":68210,"BSTAR":0.00012151519,"MEAN_MOTION_DOT":3.14e-6,"MEAN_MOTION_DDOT":0},{"OBJECT_NAME":"NEE-01 PEGASO","OBJECT_ID":"2013-018B","EPOCH":"2026-03-04T22:36:26.208000","MEAN_MOTION":14.93048644,"ECCENTRICITY":0.00136593,"INCLINATION":98.1044,"RA_OF_ASC_NODE":204.79,"ARG_OF_PERICENTER":143.6805,"MEAN_ANOMALY":216.5343,"EPHEMERIS_TYPE":0,"CLASSIFICATION_TYPE":"U","NORAD_CAT_ID":39151,"ELEMENT_SET_NO":999,"REV_AT_EPOCH":69514,"BSTAR":0.00053035507,"MEAN_MOTION_DOT":5.47e-5,"MEAN_MOTION_DDOT":0},{"OBJECT_NAME":"POPACS 2","OBJECT_ID":"2013-055E","EPOCH":"2026-03-04T20:50:27.067776","MEAN_MOTION":14.87505425,"ECCENTRICITY":0.04316428,"INCLINATION":80.9888,"RA_OF_ASC_NODE":263.3242,"ARG_OF_PERICENTER":168.2297,"MEAN_ANOMALY":192.9418,"EPHEMERIS_TYPE":0,"CLASSIFICATION_TYPE":"U","NORAD_CAT_ID":39269,"ELEMENT_SET_NO":999,"REV_AT_EPOCH":64768,"BSTAR":0.00054684353,"MEAN_MOTION_DOT":0.00031288,"MEAN_MOTION_DDOT":0},{"OBJECT_NAME":"POPACS 3","OBJECT_ID":"2013-055F","EPOCH":"2026-03-05T01:39:55.358208","MEAN_MOTION":14.53795084,"ECCENTRICITY":0.05611798,"INCLINATION":81.006,"RA_OF_ASC_NODE":341.9102,"ARG_OF_PERICENTER":26.7386,"MEAN_ANOMALY":336.1596,"EPHEMERIS_TYPE":0,"CLASSIFICATION_TYPE":"U","NORAD_CAT_ID":39270,"ELEMENT_SET_NO":999,"REV_AT_EPOCH":62341,"BSTAR":0.00044727496,"MEAN_MOTION_DOT":0.00018577,"MEAN_MOTION_DDOT":0}]
